NORAD_CAT_ID,OBJECT_NAME,OBJECT_TYPE,EPOCH,MEAN_MOTION,ECCENTRICITY,INCLINATION,RA_OF_ASC_NODE,ARG_OF_PERICENTER,MEAN_ANOMALY,BSTAR,MEAN_MOTION_DOT,MEAN_MOTION_DDOT,TLE_LINE0,TLE_LINE1,TLE_LINE2,SEMIMAJOR_AXIS,PERIOD,APOGEE,PERIGEE,DECAYED
53844.0,STARLINK-4745,PAYLOAD,2023-05-11 11:31:47,15.0883243,0.0001321,53.2177,252.2689,109.2881,250.8254,4.9473e-05,4.99e-06,0.0,0 STARLINK-4745,1 53844U 22114AC  23131.48041590  .00000499  00000-0  49473-4 0  9998,2 53844  53.2177 252.2689 0001321 109.2881 250.8254 15.08832430 36998,6917.904,95.438,540.682,538.855,0.0
53844.0,STARLINK-4745,PAYLOAD,2023-05-11 13:07:11,15.08832308,0.0001333,53.2178,251.9719,107.0016,253.1122,7.136e-05,8.48e-06,0.0,0 STARLINK-4745,1 53844U 22114AC  23131.54665540  .00000848  00000-0  71360-4 0  9990,2 53844  53.2178 251.9719 0001333 107.0016 253.1122 15.08832308 37005,6917.904,95.438,540.691,538.847,0.0
53844.0,STARLINK-4745,PAYLOAD,2023-05-13 00:05:40,15.08836004,0.0001401,53.2173,245.4313,81.205,278.9101,-3.3429e-05,-8.2e-06,0.0,0 STARLINK-4745,1 53844U 22114AC  23133.00394076 -.00000820  00000-0 -33429-4 0  9992,2 53844  53.2173 245.4313 0001401  81.2050 278.9101 15.08836004 36687,6917.893,95.438,540.727,538.788,0.0
53844.0,STARLINK-4745,PAYLOAD,2023-05-13 12:48:45,15.08836774,0.0001124,53.2156,243.0555,93.759,266.3531,-9.6682e-05,-1.826e-05,0.0,0 STARLINK-4745,1 53844U 22114AC  23133.53386378 -.00001826  00000-0 -96682-4 0  9993,2 53844  53.2156 243.0555 0001124  93.7590 266.3531 15.08836774 37301,6917.89,95.438,540.533,538.978,0.0
53844.0,STARLINK-4745,PAYLOAD,2023-05-14 14:14:55,15.088397,0.0001063,53.2161,238.2967,84.9889,275.1224,2.7259e-05,1.46e-06,0.0,0 STARLINK-4745,1 53844U 22114AC  23134.59370202  .00000146  00000-0  27259-4 0  9995,2 53844  53.2161 238.2967 0001063  84.9889 275.1224 15.08839700 36921,6917.881,95.438,540.482,539.011,0.0
53844.0,STARLINK-4745,PAYLOAD,2023-05-15 12:30:19,15.0883776,0.00011,53.216,234.132,101.079,259.0326,3.0179e-05,1.93e-06,0.0,0 STARLINK-4745,1 53844U 22114AC  23135.52106367  .00000193  00000-0  30179-4 0  9995,2 53844  53.2160 234.1320 0001100 101.0790 259.0326 15.08837760 37606,6917.887,95.438,540.513,538.991,0.0
53844.0,STARLINK-4745,PAYLOAD,2023-05-15 14:05:42,15.08839978,0.0001101,53.2162,233.8344,98.5984,261.5133,4.7619e-05,4.7e-06,0.0,0 STARLINK-4745,1 53844U 22114AC  23135.58730179  .00000470  00000-0  47619-4 0  9990,2 53844  53.2162 233.8344 0001101  98.5984 261.5133 15.08839978 37614,6917.88,95.438,540.507,538.984,0.0
53844.0,STARLINK-4745,PAYLOAD,2023-05-16 05:59:34,15.08836984,0.0001214,53.2158,230.8636,77.1347,282.978,-1.0426e-06,-3.04e-06,0.0,0 STARLINK-4745,1 53844U 22114AC  23136.24970733 -.00000304  00000-0 -10426-5 0  9991,2 53844  53.2158 230.8636 0001214  77.1347 282.9780 15.08836984 37171,6917.89,95.438,540.594,538.915,0.0
53844.0,STARLINK-4745,PAYLOAD,2023-05-16 12:21:07,15.0883977,0.00011,53.216,229.6724,82.2507,277.861,-6.2018e-05,-1.275e-05,0.0,0 STARLINK-4745,1 53844U 22114AC  23136.51466820 -.00001275  00000-0 -62018-4 0  9999,2 53844  53.2160 229.6724 0001100  82.2507 277.8610 15.08839770 37752,6917.881,95.438,540.507,538.985,0.0
53844.0,STARLINK-4745,PAYLOAD,2023-05-17 10:36:30,15.08843866,0.0001189,53.2161,225.5093,77.5415,282.571,1.0635e-05,-1.19e-06,0.0,0 STARLINK-4745,1 53844U 22114AC  23137.44202218 -.00000119  00000-0  10635-4 0  9994,2 53844  53.2161 225.5093 0001189  77.5415 282.5710 15.08843866 37350,6917.869,95.437,540.556,538.911,0.0
53844.0,STARLINK-4745,PAYLOAD,2023-05-17 12:11:53,15.08844335,0.0001187,53.2162,225.212,77.5602,282.5523,1.4559e-05,-5.6e-07,0.0,0 STARLINK-4745,1 53844U 22114AC  23137.50826154 -.00000056  00000-0  14559-4 0  9991,2 53844  53.2162 225.2120 0001187  77.5602 282.5523 15.08844335 37900,6917.867,95.437,540.553,538.911,0.0
53844.0,STARLINK-4745,PAYLOAD,2023-05-18 12:02:41,15.08836867,0.0001144,53.2158,220.751,82.4652,277.647,-3.1284e-06,-3.38e-06,0.0,0 STARLINK-4745,1 53844U 22114AC  23138.50186553 -.00000338  00000-0 -31284-5 0  9993,2 53844  53.2158 220.7510 0001144  82.4652 277.6470 15.08836867 37515,6917.89,95.438,540.546,538.964,0.0
53844.0,STARLINK-4745,PAYLOAD,2023-05-19 11:53:27,15.08842843,0.0001064,53.2157,216.29,95.2979,264.8134,-1.1269e-05,-4.67e-06,0.0,0 STARLINK-4745,1 53844U 22114AC  23139.49546049 -.00000467  00000-0 -11269-4 0  9995,2 53844  53.2157 216.2900 0001064  95.2979 264.8134 15.08842843 37664,6917.872,95.437,540.473,539.001,0.0
53844.0,STARLINK-4745,PAYLOAD,2023-05-20 21:16:33,15.08844071,0.0001116,53.2164,210.046,85.4797,274.6323,4.0533e-05,3.57e-06,0.0,0 STARLINK-4745,1 53844U 22114AC  23140.88649618  .00000357  00000-0  40533-4 0  9998,2 53844  53.2164 210.0460 0001116  85.4797 274.6323 15.08844071 38410,6917.868,95.437,540.505,538.961,0.0
53844.0,STARLINK-4745,PAYLOAD,2023-05-21 05:13:29,15.0884135,0.0001038,53.2157,208.5599,87.2195,272.8915,-4.4477e-05,-9.96e-06,0.0,0 STARLINK-4745,1 53844U 22114AC  23141.21770109 -.00000996  00000-0 -44477-4 0  9998,2 53844  53.2157 208.5599 0001038  87.2195 272.8915 15.08841350 37921,6917.876,95.437,540.459,539.023,0.0
53844.0,STARLINK-4745,PAYLOAD,2023-05-21 09:59:38,15.0884159,0.0001119,53.2162,207.6678,94.7886,265.3234,-3.5495e-05,-8.53e-06,0.0,0 STARLINK-4745,1 53844U 22114AC  23141.41641993 -.00000853  00000-0 -35495-4 0  9990,2 53844  53.2162 207.6678 0001119  94.7886 265.3234 15.08841590 38495,6917.876,95.437,540.515,538.966,0.0
53844.0,STARLINK-4745,PAYLOAD,2023-05-21 21:07:20,15.08836898,0.0001131,53.217,205.5816,79.6248,280.4872,-1.2278e-05,-4.83e-06,0.0,0 STARLINK-4745,1 53844U 22114AC  23141.88010134 -.00000483  00000-0 -12278-4 0  9991,2 53844  53.2170 205.5816 0001131  79.6248 280.4872 15.08836898 38562,6917.89,95.438,540.537,538.972,0.0
53844.0,STARLINK-4745,PAYLOAD,2023-05-22 05:04:17,15.08832173,0.0001267,53.2163,204.0972,101.4968,258.6166,-0.00011273,-2.081e-05,0.0,0 STARLINK-4745,1 53844U 22114AC  23142.21131017 -.00002081  00000-0 -11273-3 0  9992,2 53844  53.2163 204.0972 0001267 101.4968 258.6166 15.08832173 38075,6917.904,95.438,540.646,538.893,0.0
53844.0,STARLINK-4745,PAYLOAD,2023-05-22 13:01:13,15.08828916,0.0001173,53.2173,202.6143,77.7367,282.3757,-0.00012622,-2.295e-05,0.0,0 STARLINK-4745,1 53844U 22114AC  23142.54251536 -.00002295  00000-0 -12622-3 0  9993,2 53844  53.2173 202.6143 0001173  77.7367 282.3757 15.08828916 38669,6917.914,95.438,540.591,538.968,0.0
53844.0,STARLINK-4745,PAYLOAD,2023-05-22 20:58:08,15.08832385,0.0001158,53.2176,201.1254,94.3251,265.7874,-5.8378e-05,-1.217e-05,0.0,0 STARLINK-4745,1 53844U 22114AC  23142.87371159 -.00001217  00000-0 -58378-4 0  9995,2 53844  53.2176 201.1254 0001158  94.3251 265.7874 15.08832385 38715,6917.904,95.438,540.57,538.968,0.0
53844.0,STARLINK-4745,PAYLOAD,2023-05-23 11:16:36,15.0883742,0.0001107,53.2174,198.4503,95.5387,264.5732,3.0864e-07,-2.83e-06,0.0,0 STARLINK-4745,1 53844U 22114AC  23143.46986822 -.00000283  00000-0  30864-6 0  9993,2 53844  53.2174 198.4503 0001107  95.5387 264.5732 15.08837420 38260,6917.888,95.438,540.519,538.987,0.0
53844.0,STARLINK-4745,PAYLOAD,2023-05-24 07:56:37,15.08831152,0.0001059,53.2165,194.583,78.7608,281.3504,0.0001248,1.698e-05,0.0,0 STARLINK-4745,1 53844U 22114AC  23144.33099000  .00001698  00000-0  12480-3 0  9994,2 53844  53.2165 194.5830 0001059  78.7608 281.3504 15.08831152 38939,6917.907,95.438,540.505,539.04,0.0
53844.0,STARLINK-4745,PAYLOAD,2023-05-26 02:52:02,15.08840501,0.0001016,53.2158,186.5543,80.1246,279.986,-1.2617e-05,-4.89e-06,0.0,0 STARLINK-4745,1 53844U 22114AC  23146.11946887 -.00000489  00000-0 -12617-4 0  9998,2 53844  53.2158 186.5543 0001016  80.1246 279.9860 15.08840501 38667,6917.879,95.438,540.447,539.041,0.0
53844.0,STARLINK-4745,PAYLOAD,2023-05-26 09:13:34,15.08840681,0.0001034,53.2157,185.3648,78.7262,281.3846,-1.6163e-05,-5.45e-06,0.0,0 STARLINK-4745,1 53844U 22114AC  23146.38442860 -.00000545  00000-0 -16163-4 0  9992,2 53844  53.2157 185.3648 0001034  78.7262 281.3846 15.08840681 39245,6917.878,95.438,540.459,539.028,0.0
53844.0,STARLINK-4745,PAYLOAD,2023-05-27 09:04:21,15.08835701,0.000101,53.2155,180.9041,85.3235,274.7872,-2.9491e-05,-7.57e-06,0.0,0 STARLINK-4745,1 53844U 22114AC  23147.37803206 -.00000757  00000-0 -29491-4 0  9990,2 53844  53.2155 180.9041 0001010  85.3235 274.7872 15.08835701 38857,6917.894,95.438,540.457,539.06,0.0
53844.0,STARLINK-4745,PAYLOAD,2023-05-27 18:36:40,15.08835909,0.0001014,53.2154,179.1199,84.3508,275.76,-2.8848e-05,-7.47e-06,0.0,0 STARLINK-4745,1 53844U 22114AC  23147.77547255 -.00000747  00000-0 -28848-4 0  9997,2 53844  53.2154 179.1199 0001014  84.3508 275.7600 15.08835909 39453,6917.893,95.438,540.459,539.056,0.0
53844.0,STARLINK-4745,PAYLOAD,2023-05-28 05:44:22,15.08835897,0.0001008,53.2153,177.0382,83.8989,276.2118,-6.974e-06,-3.99e-06,0.0,0 STARLINK-4745,1 53844U 22114AC  23148.23915256 -.00000399  00000-0 -69740-5 0  9999,2 53844  53.2153 177.0382 0001008  83.8989 276.2118 15.08835897 39527,6917.893,95.438,540.455,539.061,0.0
53844.0,STARLINK-4745,PAYLOAD,2023-05-28 08:55:09,15.08836772,0.000102,53.2153,176.4435,83.8504,276.2604,5.9115e-07,-2.78e-06,0.0,0 STARLINK-4745,1 53844U 22114AC  23148.37163198 -.00000278  00000-0  59115-6 0  9995,2 53844  53.2153 176.4435 0001020  83.8504 276.2604 15.08836772 39541,6917.89,95.438,540.461,539.05,0.0
53844.0,STARLINK-4745,PAYLOAD,2023-05-29 02:24:23,15.08833296,0.0001013,53.2153,173.1724,82.4839,277.6268,1.877e-05,1.1e-07,0.0,0 STARLINK-4745,1 53844U 22114AC  23149.10027489  .00000011  00000-0  18770-4 0  9993,2 53844  53.2153 173.1724 0001013  82.4839 277.6268 15.08833296 39116,6917.901,95.438,540.467,539.065,0.0
53844.0,STARLINK-4745,PAYLOAD,2023-05-29 07:10:33,15.08834679,0.0001015,53.2154,172.2803,82.4806,277.6301,2.8388e-05,1.64e-06,0.0,0 STARLINK-4745,1 53844U 22114AC  23149.29899426  .00000164  00000-0  28388-4 0  9996,2 53844  53.2154 172.2803 0001015  82.4806 277.6301 15.08834679 39687,6917.897,95.438,540.464,539.059,0.0
